{
 "type": "FeatureCollection",
 "crs_note": "local NavVis site coordinates, meters",
 "features": [
  {
   "type": "Feature",
   "properties": {
    "name": "Aile Ouest",
    "type": "BUILDING",
    "id": 46914,
    "area_m2": 564.266
   },
   "geometry": {
    "type": "Polygon",
    "coordinates": [
     [
      [
       -23.32038180718353,
       12.12806956604807
      ],
      [
       -9.680401115311728,
       -34.30488575309847
      ],
      [
       -8.338426083131623,
       -34.137502119383825
      ],
      [
       -7.179210667915787,
       -38.17989433654675
      ],
      [
       -8.04119136128141,
       -38.47712905839696
      ],
      [
       -7.087411315277538,
       -41.452111042406784
      ],
      [
       -29.617803231523848,
       -48.1285299430712
      ],
      [
       -31.7578932288454,
       -40.99489661866603
      ],
      [
       -15.945006026413953,
       -36.14997065250753
      ],
      [
       -28.5667618272949,
       5.737710139411712
      ],
      [
       -41.43702528340921,
       2.705915976539518
      ],
      [
       -42.180112088034754,
       7.431948053957939
      ],
      [
       -34.45200931992916,
       8.888398191023992
      ],
      [
       -23.32038180718353,
       12.12806956604807
      ]
     ]
    ]
   }
  },
  {
   "type": "Feature",
   "properties": {
    "name": "Aile Sud-Est",
    "type": "BUILDING",
    "id": 46921,
    "area_m2": 449.514
   },
   "geometry": {
    "type": "Polygon",
    "coordinates": [
     [
      [
       18.816687964142584,
       -2.168598534438219
      ],
      [
       25.30272653409385,
       -24.0312692990317
      ],
      [
       -3.2542398739979275,
       -32.339996115987766
      ],
      [
       -1.9936505449636543,
       -36.420886994725834
      ],
      [
       -0.5621338492806656,
       -36.14313002392167
      ],
      [
       0.3465059915224522,
       -39.289604158069416
      ],
      [
       34.67519982085145,
       -29.215390447263985
      ],
      [
       26.75185455191803,
       -1.4632503944639383
      ],
      [
       18.816687964142584,
       -2.168598534438219
      ]
     ]
    ]
   }
  },
  {
   "type": "Feature",
   "properties": {
    "name": "Atelier",
    "type": "BUILDING",
    "id": 46919,
    "area_m2": 454.994
   },
   "geometry": {
    "type": "Polygon",
    "coordinates": [
     [
      [
       -9.022596829276994,
       22.754675979958442
      ],
      [
       -9.170700073242188,
       20.393207550048828
      ],
      [
       -9.27173137664795,
       18.865102767944336
      ],
      [
       -10.623030662536621,
       18.801958084106445
      ],
      [
       -7.6925138038306855,
       8.020002949532191
      ],
      [
       4.997127929487705,
       9.946214205866427
      ],
      [
       28.39716352371402,
       11.775994459308144
      ],
      [
       28.010590230733374,
       14.58509372163416
      ],
      [
       25.188605191974673,
       14.353149745845771
      ],
      [
       24.594296169247162,
       24.08034764570148
      ],
      [
       11.824491724453218,
       22.817541555298043
      ],
      [
       -9.022596829276994,
       22.754675979958442
      ]
     ]
    ]
   }
  },
  {
   "type": "Feature",
   "properties": {
    "name": "Chapelle",
    "type": "BUILDING",
    "id": 46920,
    "area_m2": 239.95
   },
   "geometry": {
    "type": "Polygon",
    "coordinates": [
     [
      [
       10.102531664244264,
       10.34543473825659
      ],
      [
       11.160074538868674,
       -2.8491864404055356
      ],
      [
       29.261116175283114,
       -1.2402049616131414
      ],
      [
       28.39716339111328,
       11.775994300842285
      ],
      [
       10.102531664244264,
       10.34543473825659
      ]
     ]
    ]
   }
  },
  {
   "type": "Feature",
   "properties": {
    "name": "Maison principale",
    "type": "BUILDING",
    "id": 46918,
    "area_m2": 182.283
   },
   "geometry": {
    "type": "Polygon",
    "coordinates": [
     [
      [
       -24.274937966983522,
       15.922555048168377
      ],
      [
       -23.32038116455078,
       12.128069877624512
      ],
      [
       -20.837715914333224,
       3.676629112078249
      ],
      [
       -7.455906925728616,
       7.1494788213631715
      ],
      [
       -10.623030463114143,
       18.801958295978014
      ],
      [
       -9.271731570501727,
       18.865103104044014
      ],
      [
       -9.170699877596125,
       20.393207459241232
      ],
      [
       -9.915808612774935,
       21.049913463127645
      ],
      [
       -10.875609695378149,
       20.82259215409004
      ],
      [
       -11.254478543774152,
       20.07748341891123
      ],
      [
       -11.22922062054775,
       19.534438069543622
      ],
      [
       -24.274937966983522,
       15.922555048168377
      ]
     ]
    ]
   }
  }
 ]
}